IXPE                    
1 49954U 21121A   23349.45025859  .00004064  00000+0  28467-3 0  9990
2 49954   0.2310 321.9903 0010039  61.3228 336.7328 14.95797374110179
